{"type": "FeatureCollection", "features": [ {"type": "Feature", "properties": {"norad_id": 31258, "name": "FENGYUN 1C DEB", "group": "fengyun-1c-debris", "lat": -11.283531379227929, "lon": -47.25675963886154, "alt_km": 534.7560140678106, "timestamp": "2025-12-11T18:59:46.354951+00:00", "meta": {"OBJECT_NAME": "FENGYUN 1C DEB", "OBJECT_ID": "1999-025BMQ", "EPOCH": "2025-12-10T08:55:48.436032", "MEAN_MOTION": 15.11516098, "ECCENTRICITY": 0.00045646, "INCLINATION": 98.8487, "RA_OF_ASC_NODE": 132.8823, "ARG_OF_PERICENTER": 302.999, "MEAN_ANOMALY": 87.5862, "EPHEMERIS_TYPE": 0, "CLASSIFICATION_TYPE": "U", "NORAD_CAT_ID": 31258, "ELEMENT_SET_NO": 999, "REV_AT_EPOCH": 97075, "BSTAR": 0.014236545, "MEAN_MOTION_DOT": 0.00249542, "MEAN_MOTION_DDOT": 0}, "tle": {"line1": "1 31258U 99025BMQ 25344.37208838  .00249542  00000+0  14237-1 0  9994", "line2": "2 31258  98.8487 132.8823 0004564 302.9990  87.5862 15.11516098970754"}}, "geometry": {"type": "Point", "coordinates": [-47.25675963886154, -11.283531379227929]}}, {"type": "Feature", "properties": {"norad_id": 31259, "name": "FENGYUN 1C DEB", "group": "fengyun-1c-debris", "lat": 67.09886245101863, "lon": 42.919780303604796, "alt_km": 865.7682867020685, "timestamp": "2025-12-11T18:59:46.354961+00:00", "meta": {"OBJECT_NAME": "FENGYUN 1C DEB", "OBJECT_ID": "1999-025BMR", "EPOCH": "2025-12-10T20:55:32.869344", "MEAN_MOTION": 14.15005449, "ECCENTRICITY": 0.0065781, "INCLINATION": 99.0092, "RA_OF_ASC_NODE": 64.0502, "ARG_OF_PERICENTER": 201.089, "MEAN_ANOMALY": 226.5155, "EPHEMERIS_TYPE": 0, "CLASSIFICATION_TYPE": "U", "NORAD_CAT_ID": 31259, "ELEMENT_SET_NO": 999, "REV_AT_EPOCH": 95543, "BSTAR": 0.0027446, "MEAN_MOTION_DOT": 5.383e-05, "MEAN_MOTION_DDOT": 0}, "tle": {"line1": "1 31259U 99025BMR 25344.87190821  .00005383  00000+0  27446-2 0  9992", "line2": "2 31259  99.0092  64.0502 0065781 201.0890 226.5155 14.15005449955430"}}, "geometry": {"type": "Point", "coordinates": [42.919780303604796, 67.09886245101863]}}, {"type": "Feature", "properties": {"norad_id": 31260, "name": "FENGYUN 1C DEB", "group": "fengyun-1c-debris", "lat": 77.0841180874501, "lon": -160.75082073640004, "alt_km": 790.7266540666542, "timestamp": "2025-12-11T18:59:46.354971+00:00", "meta": {"OBJECT_NAME": "FENGYUN 1C DEB", "OBJECT_ID": "1999-025BMS", "EPOCH": "2025-12-10T16:00:46.162080", "MEAN_MOTION": 14.36408342, "ECCENTRICITY": 0.0047191, "INCLINATION": 98.9558, "RA_OF_ASC_NODE": 241.526, "ARG_OF_PERICENTER": 298.7563, "MEAN_ANOMALY": 91.017, "EPHEMERIS_TYPE": 0, "CLASSIFICATION_TYPE": "U", "NORAD_CAT_ID": 31260, "ELEMENT_SET_NO": 999, "REV_AT_EPOCH": 97164, "BSTAR": 0.0017132, "MEAN_MOTION_DOT": 5.038e-05, "MEAN_MOTION_DDOT": 0}, "tle": {"line1": "1 31260U 99025BMS 25344.66720095  .00005038  00000+0  17132-2 0  9991", "line2": "2 31260  98.9558 241.5260 0047191 298.7563  91.0170 14.36408342971640"}}, "geometry": {"type": "Point", "coordinates": [-160.75082073640004, 77.0841180874501]}}, {"type": "Feature", "properties": {"norad_id": 31261, "name": "FENGYUN 1C DEB", "group": "fengyun-1c-debris", "lat": 78.7207936158219, "lon": -113.60372290611048, "alt_km": 782.5390450407313, "timestamp": "2025-12-11T18:59:46.354980+00:00", "meta": {"OBJECT_NAME": "FENGYUN 1C DEB", "OBJECT_ID": "1999-025BMT", "EPOCH": "2025-12-10T07:35:22.126848", "MEAN_MOTION": 14.40058842, "ECCENTRICITY": 0.00499763, "INCLINATION": 99.0156, "RA_OF_ASC_NODE": 297.5987, "ARG_OF_PERICENTER": 240.2518, "MEAN_ANOMALY": 119.3692, "EPHEMERIS_TYPE": 0, "CLASSIFICATION_TYPE": "U", "NORAD_CAT_ID": 31261, "ELEMENT_SET_NO": 999, "REV_AT_EPOCH": 97315, "BSTAR": 0.0016518644, "MEAN_MOTION_DOT": 5.241e-05, "MEAN_MOTION_DDOT": 0}, "tle": {"line1": "1 31261U 99025BMT 25344.31622832  .00005241  00000+0  16519-2 0  9998", "line2": "2 31261  99.0156 297.5987 0049976 240.2518 119.3692 14.40058842973151"}}, "geometry": {"type": "Point", "coordinates": [-113.60372290611048, 78.7207936158219]}}, {"type": "Feature", "properties": {"norad_id": 31262, "name": "FENGYUN 1C DEB", "group": "fengyun-1c-debris", "lat": 2.5534687367693456, "lon": -110.35905728078359, "alt_km": 824.6037969253566, "timestamp": "2025-12-11T18:59:46.354994+00:00", "meta": {"OBJECT_NAME": "FENGYUN 1C DEB", "OBJECT_ID": "1999-025BMU", "EPOCH": "2025-12-10T17:28:24.445344", "MEAN_MOTION": 14.18162638, "ECCENTRICITY": 0.00553543, "INCLINATION": 99.003, "RA_OF_ASC_NODE": 68.1576, "ARG_OF_PERICENTER": 103.7749, "MEAN_ANOMALY": 46.5995, "EPHEMERIS_TYPE": 0, "CLASSIFICATION_TYPE": "U", "NORAD_CAT_ID": 31262, "ELEMENT_SET_NO": 999, "REV_AT_EPOCH": 95680, "BSTAR": 0.0026286567, "MEAN_MOTION_DOT": 5.44e-05, "MEAN_MOTION_DDOT": 0}, "tle": {"line1": "1 31262U 99025BMU 25344.72806071  .00005440  00000+0  26287-2 0  9997", "line2": "2 31262  99.0030  68.1576 0055354 103.7749  46.5995 14.18162638956809"}}, "geometry": {"type": "Point", "coordinates": [-110.35905728078359, 2.5534687367693456]}}, {"type": "Feature", "properties": {"norad_id": 31263, "name": "FENGYUN 1C DEB", "group": "fengyun-1c-debris", "lat": 78.126681043314, "lon": 138.58741487189093, "alt_km": 394.45178060799117, "timestamp": "2025-12-11T18:59:46.355006+00:00", "meta": {"OBJECT_NAME": "FENGYUN 1C DEB", "OBJECT_ID": "1999-025BMV", "EPOCH": "2025-12-10T05:20:59.404128", "MEAN_MOTION": 15.46423657, "ECCENTRICITY": 0.0022969, "INCLINATION": 98.9891, "RA_OF_ASC_NODE": 267.7937, "ARG_OF_PERICENTER": 120.0043, "MEAN_ANOMALY": 240.3485, "EPHEMERIS_TYPE": 0, "CLASSIFICATION_TYPE": "U", "NORAD_CAT_ID": 31263, "ELEMENT_SET_NO": 999, "REV_AT_EPOCH": 97127, "BSTAR": 0.022467, "MEAN_MOTION_DOT": 0.01232313, "MEAN_MOTION_DDOT": 0}, "tle": {"line1": "1 31263U 99025BMV 25344.22290977  .01232313  00000+0  22467-1 0  9992", "line2": "2 31263  98.9891 267.7937 0022969 120.0043 240.3485 15.46423657971275"}}, "geometry": {"type": "Point", "coordinates": [138.58741487189093, 78.126681043314]}}, {"type": "Feature", "properties": {"norad_id": 31264, "name": "FENGYUN 1C DEB", "group": "fengyun-1c-debris", "lat": 31.383480532012598, "lon": 68.36855403810135, "alt_km": 828.9380287198965, "timestamp": "2025-12-11T18:59:46.355019+00:00", "meta": {"OBJECT_NAME": "FENGYUN 1C DEB", "OBJECT_ID": "1999-025BMW", "EPOCH": "2025-12-11T05:28:44.267232", "MEAN_MOTION": 14.18584393, "ECCENTRICITY": 0.00011465, "INCLINATION": 99.1143, "RA_OF_ASC_NODE": 242.1704, "ARG_OF_PERICENTER": 10.6711, "MEAN_ANOMALY": 142.6875, "EPHEMERIS_TYPE": 0, "CLASSIFICATION_TYPE": "U", "NORAD_CAT_ID": 31264, "ELEMENT_SET_NO": 999, "REV_AT_EPOCH": 96407, "BSTAR": 0.00080776637, "MEAN_MOTION_DOT": 1.626e-05, "MEAN_MOTION_DDOT": 0}, "tle": {"line1": "1 31264U 99025BMW 25345.22829013  .00001626  00000+0  80777-3 0  9993", "line2": "2 31264  99.1143 242.1704 0001146  10.6711 142.6875 14.18584393964078"}}, "geometry": {"type": "Point", "coordinates": [68.36855403810135, 31.383480532012598]}}, {"type": "Feature", "properties": {"norad_id": 31266, "name": "FENGYUN 1C DEB", "group": "fengyun-1c-debris", "lat": 13.756307208893377, "lon": 151.06593963764425, "alt_km": 865.6436960450055, "timestamp": "2025-12-11T18:59:46.355031+00:00", "meta": {"OBJECT_NAME": "FENGYUN 1C DEB", "OBJECT_ID": "1999-025BMY", "EPOCH": "2025-12-10T10:51:13.646592", "MEAN_MOTION": 14.22328789, "ECCENTRICITY": 0.01297218, "INCLINATION": 99.2571, "RA_OF_ASC_NODE": 327.3718, "ARG_OF_PERICENTER": 290.7781, "MEAN_ANOMALY": 222.6872, "EPHEMERIS_TYPE": 0, "CLASSIFICATION_TYPE": "U", "NORAD_CAT_ID": 31266, "ELEMENT_SET_NO": 999, "REV_AT_EPOCH": 97173, "BSTAR": 0.00054779379, "MEAN_MOTION_DOT": 1.278e-05, "MEAN_MOTION_DDOT": 0}, "tle": {"line1": "1 31266U 99025BMY 25344.45224128  .00001278  00000+0  54779-3 0  9991", "line2": "2 31266  99.2571 327.3718 0129721 290.7781 222.6872 14.22328789971732"}}, "geometry": {"type": "Point", "coordinates": [151.06593963764425, 13.756307208893377]}}, {"type": "Feature", "properties": {"norad_id": 31268, "name": "FENGYUN 1C DEB", "group": "fengyun-1c-debris", "lat": 5.82684320163125, "lon": 27.125787689787845, "alt_km": 909.5849788528549, "timestamp": "2025-12-11T18:59:46.355041+00:00", "meta": {"OBJECT_NAME": "FENGYUN 1C DEB", "OBJECT_ID": "1999-025BNA", "EPOCH": "2025-12-11T01:53:37.100832", "MEAN_MOTION": 14.06406116, "ECCENTRICITY": 0.00493614, "INCLINATION": 98.7549, "RA_OF_ASC_NODE": 27.3376, "ARG_OF_PERICENTER": 188.3017, "MEAN_ANOMALY": 171.734, "EPHEMERIS_TYPE": 0, "CLASSIFICATION_TYPE": "U", "NORAD_CAT_ID": 31268, "ELEMENT_SET_NO": 999, "REV_AT_EPOCH": 62009, "BSTAR": 0.00083019137, "MEAN_MOTION_DOT": 1.344e-05, "MEAN_MOTION_DDOT": 0}, "tle": {"line1": "1 31268U 99025BNA 25345.07890163  .00001344  00000+0  83019-3 0  9993", "line2": "2 31268  98.7549  27.3376 0049361 188.3017 171.7340 14.06406116620092"}}, "geometry": {"type": "Point", "coordinates": [27.125787689787845, 5.82684320163125]}}, {"type": "Feature", "properties": {"norad_id": 31269, "name": "FENGYUN 1C DEB", "group": "fengyun-1c-debris", "lat": -8.249166952291082, "lon": -134.9071403131237, "alt_km": 697.4766475764636, "timestamp": "2025-12-11T18:59:46.355052+00:00", "meta": {"OBJECT_NAME": "FENGYUN 1C DEB", "OBJECT_ID": "1999-025BNB", "EPOCH": "2025-12-10T14:54:02.278080", "MEAN_MOTION": 14.43627019, "ECCENTRICITY": 0.0240476, "INCLINATION": 98.1796, "RA_OF_ASC_NODE": 222.7719, "ARG_OF_PERICENTER": 282.0203, "MEAN_ANOMALY": 106.6873, "EPHEMERIS_TYPE": 0, "CLASSIFICATION_TYPE": "U", "NORAD_CAT_ID": 31269, "ELEMENT_SET_NO": 999, "REV_AT_EPOCH": 96456, "BSTAR": 0.0035411, "MEAN_MOTION_DOT": 0.0001707, "MEAN_MOTION_DDOT": 0}, "tle": {"line1": "1 31269U 99025BNB 25344.62085970  .00017070  00000+0  35411-2 0  9991", "line2": "2 31269  98.1796 222.7719 0240476 282.0203 106.6873 14.43627019964561"}}, "geometry": {"type": "Point", "coordinates": [-134.9071403131237, -8.249166952291082]}}]}